start=new Date('2023-04-03T00:00:00.000Z').valueOf();
sats=[{"TLE_LINE1":"1 55915U 23037B   23092.91667824 -.00894571  00000-0 -72560-2 0  9997","TLE_LINE2":"2 55915  70.0003 135.6962 0003801 285.2452 108.6437 15.73007221  1300","ECCENTRICITY":"0.00038010","OBJECT_ID":"2023-037B","REV_AT_EPOCH":"130","EPHEMERIS_TYPE":"0","DECAY_DATE":null,"OBJECT_TYPE":"PAYLOAD","ELEMENT_SET_NO":"999","BSTAR":"-0.00725600000000","MEAN_ANOMALY":"108.6437","NORAD_CAT_ID":"55915","TIME_SYSTEM":"UTC","LAUNCH_DATE":"2023-03-17","PERIOD":"91.544","SEMIMAJOR_AXIS":"6728.445","OBJECT_NAME":"STARLINK-5859","RCS_SIZE":"LARGE","SITE":"AFWTR","MEAN_MOTION":"15.73007221","MEAN_MOTION_DDOT":"0.0000000000000","MEAN_MOTION_DOT":"-0.00894571","MEAN_ELEMENT_THEORY":"SGP4","REF_FRAME":"TEME","CENTER_NAME":"EARTH","INCLINATION":"70.0003","CLASSIFICATION_TYPE":"U","RA_OF_ASC_NODE":"135.6962","PERIAPSIS":"347.752","APOAPSIS":"352.867","EPOCH":"2023-04-02T22:00:00.999936","GP_ID":"229355829","COUNTRY_CODE":"US","ARG_OF_PERICENTER":"285.2452","FILE":"3878419"},{"BSTAR":"-0.00729860000000","ELEMENT_SET_NO":"999","OBJECT_TYPE":"PAYLOAD","DECAY_DATE":null,"REV_AT_EPOCH":"130","EPHEMERIS_TYPE":"0","OBJECT_ID":"2023-037C","TLE_LINE2":"2 55916  70.0004 135.6979 0003867 286.4431 105.8211 15.72980892  1304","ECCENTRICITY":"0.00038670","TLE_LINE1":"1 55916U 23037C   23092.91667824 -.00898421  00000-0 -72986-2 0  9998","RCS_SIZE":"LARGE","OBJECT_NAME":"STARLINK-5796","SEMIMAJOR_AXIS":"6728.520","PERIOD":"91.546","LAUNCH_DATE":"2023-03-17","NORAD_CAT_ID":"55916","TIME_SYSTEM":"UTC","MEAN_ANOMALY":"105.8211","INCLINATION":"70.0004","CENTER_NAME":"EARTH","REF_FRAME":"TEME","MEAN_ELEMENT_THEORY":"SGP4","MEAN_MOTION":"15.72980892","MEAN_MOTION_DDOT":"0.0000000000000","MEAN_MOTION_DOT":"-0.00898421","SITE":"AFWTR","FILE":"3878419","ARG_OF_PERICENTER":"286.4431","COUNTRY_CODE":"US","GP_ID":"229355852","EPOCH":"2023-04-02T22:00:00.999936","APOAPSIS":"352.987","PERIAPSIS":"347.783","CLASSIFICATION_TYPE":"U","RA_OF_ASC_NODE":"135.6979"},{"MEAN_ANOMALY":"122.6245","NORAD_CAT_ID":"55917","TIME_SYSTEM":"UTC","LAUNCH_DATE":"2023-03-17","PERIOD":"91.547","SEMIMAJOR_AXIS":"6728.562","OBJECT_NAME":"STARLINK-5855","RCS_SIZE":"LARGE","TLE_LINE1":"1 55917U 23037D   23092.91667824 -.00839265  00000-0 -67760-2 0  9994","TLE_LINE2":"2 55917  69.9958 135.6926 0003269 270.7306 122.6245 15.72966130  1308","ECCENTRICITY":"0.00032690","OBJECT_ID":"2023-037D","REV_AT_EPOCH":"130","EPHEMERIS_TYPE":"0","OBJECT_TYPE":"PAYLOAD","DECAY_DATE":null,"ELEMENT_SET_NO":"999","BSTAR":"-0.00677600000000","CLASSIFICATION_TYPE":"U","RA_OF_ASC_NODE":"135.6926","PERIAPSIS":"348.227","EPOCH":"2023-04-02T22:00:00.999936","APOAPSIS":"352.627","GP_ID":"229355914","COUNTRY_CODE":"US","ARG_OF_PERICENTER":"270.7306","FILE":"3878419","SITE":"AFWTR","MEAN_MOTION":"15.72966130","MEAN_MOTION_DOT":"-0.00839265","MEAN_MOTION_DDOT":"0.0000000000000","MEAN_ELEMENT_THEORY":"SGP4","REF_FRAME":"TEME","CENTER_NAME":"EARTH","INCLINATION":"69.9958"},{"RCS_SIZE":"MEDIUM","OBJECT_NAME":"STARLINK-5867","SEMIMAJOR_AXIS":"6728.583","PERIOD":"91.547","LAUNCH_DATE":"2023-03-17","MEAN_ANOMALY":"125.1785","NORAD_CAT_ID":"55918","TIME_SYSTEM":"UTC","ELEMENT_SET_NO":"999","BSTAR":"-0.00680310000000","OBJECT_TYPE":"PAYLOAD","DECAY_DATE":null,"OBJECT_ID":"2023-037E","REV_AT_EPOCH":"130","EPHEMERIS_TYPE":"0","TLE_LINE1":"1 55918U 23037E   23092.91667824 -.00842177  00000-0 -68031-2 0  9993","TLE_LINE2":"2 55918  69.9961 135.6928 0003544 267.6290 125.1785 15.72958708  1307","ECCENTRICITY":"0.00035440","ARG_OF_PERICENTER":"267.6290","FILE":"3878419","GP_ID":"229355883","COUNTRY_CODE":"US","PERIAPSIS":"348.064","APOAPSIS":"352.833","EPOCH":"2023-04-02T22:00:00.999936","CLASSIFICATION_TYPE":"U","RA_OF_ASC_NODE":"135.6928","INCLINATION":"69.9961","REF_FRAME":"TEME","CENTER_NAME":"EARTH","MEAN_MOTION":"15.72958708","MEAN_MOTION_DDOT":"0.0000000000000","MEAN_MOTION_DOT":"-0.00842177","MEAN_ELEMENT_THEORY":"SGP4","SITE":"AFWTR"},{"LAUNCH_DATE":"2023-03-17","MEAN_ANOMALY":"106.0073","TIME_SYSTEM":"UTC","NORAD_CAT_ID":"55919","OBJECT_NAME":"STARLINK-5871","RCS_SIZE":"LARGE","PERIOD":"91.544","SEMIMAJOR_AXIS":"6728.419","OBJECT_ID":"2023-037F","REV_AT_EPOCH":"130","EPHEMERIS_TYPE":"0","TLE_LINE1":"1 55919U 23037F   23092.91667824 -.00894393  00000-0 -72512-2 0  9990","ECCENTRICITY":"0.00039030","TLE_LINE2":"2 55919  70.0003 135.6955 0003903 288.4258 106.0073 15.73016160  1308","ELEMENT_SET_NO":"999","BSTAR":"-0.00725120000000","OBJECT_TYPE":"PAYLOAD","DECAY_DATE":null,"PERIAPSIS":"347.658","EPOCH":"2023-04-02T22:00:00.999936","APOAPSIS":"352.910","RA_OF_ASC_NODE":"135.6955","CLASSIFICATION_TYPE":"U","ARG_OF_PERICENTER":"288.4258","FILE":"3878419","GP_ID":"229355954","COUNTRY_CODE":"US","MEAN_MOTION_DOT":"-0.00894393","MEAN_MOTION_DDOT":"0.0000000000000","MEAN_MOTION":"15.73016160","MEAN_ELEMENT_THEORY":"SGP4","SITE":"AFWTR","INCLINATION":"70.0003","REF_FRAME":"TEME","CENTER_NAME":"EARTH"},{"COUNTRY_CODE":"US","GP_ID":"229355977","FILE":"3878419","ARG_OF_PERICENTER":"284.3619","RA_OF_ASC_NODE":"135.6896","CLASSIFICATION_TYPE":"U","EPOCH":"2023-04-02T22:00:00.999936","APOAPSIS":"352.565","PERIAPSIS":"347.491","CENTER_NAME":"EARTH","REF_FRAME":"TEME","INCLINATION":"70.0002","SITE":"AFWTR","MEAN_ELEMENT_THEORY":"SGP4","MEAN_MOTION_DDOT":"0.0000000000000","MEAN_MOTION_DOT":"-0.00894698","MEAN_MOTION":"15.73106096","PERIOD":"91.539","SEMIMAJOR_AXIS":"6728.163","OBJECT_NAME":"STARLINK-5862","RCS_SIZE":"LARGE","TIME_SYSTEM":"UTC","NORAD_CAT_ID":"55920","MEAN_ANOMALY":"114.9130","LAUNCH_DATE":"2023-03-17","OBJECT_TYPE":"PAYLOAD","DECAY_DATE":null,"BSTAR":"-0.00722650000000","ELEMENT_SET_NO":"999","ECCENTRICITY":"0.00037710","TLE_LINE2":"2 55920  70.0002 135.6896 0003771 284.3619 114.9130 15.73106096  1302","TLE_LINE1":"1 55920U 23037G   23092.91667824 -.00894698  00000-0 -72265-2 0  9995","EPHEMERIS_TYPE":"0","REV_AT_EPOCH":"130","OBJECT_ID":"2023-037G"},{"RCS_SIZE":"LARGE","OBJECT_NAME":"STARLINK-5861","PERIOD":"91.542","SEMIMAJOR_AXIS":"6728.348","LAUNCH_DATE":"2023-03-17","MEAN_ANOMALY":"128.3188","TIME_SYSTEM":"UTC","NORAD_CAT_ID":"55921","ELEMENT_SET_NO":"999","BSTAR":"-0.00708280000000","OBJECT_TYPE":"PAYLOAD","DECAY_DATE":null,"OBJECT_ID":"2023-037H","REV_AT_EPOCH":"130","EPHEMERIS_TYPE":"0","TLE_LINE1":"1 55921U 23037H   23092.91667824 -.00876234  00000-0 -70828-2 0  9995","ECCENTRICITY":"0.00033630","TLE_LINE2":"2 55921  69.9964 135.6899 0003363 267.7238 128.3188 15.73041327  1306","ARG_OF_PERICENTER":"267.7238","FILE":"3878419","GP_ID":"229356039","COUNTRY_CODE":"US","PERIAPSIS":"347.950","APOAPSIS":"352.475","EPOCH":"2023-04-02T22:00:00.999936","RA_OF_ASC_NODE":"135.6899","CLASSIFICATION_TYPE":"U","INCLINATION":"69.9964","REF_FRAME":"TEME","CENTER_NAME":"EARTH","MEAN_MOTION_DDOT":"0.0000000000000","MEAN_MOTION_DOT":"-0.00876234","MEAN_MOTION":"15.73041327","MEAN_ELEMENT_THEORY":"SGP4","SITE":"AFWTR"},{"SITE":"AFWTR","MEAN_ELEMENT_THEORY":"SGP4","MEAN_MOTION_DDOT":"0.0000000000000","MEAN_MOTION_DOT":"-0.00894999","MEAN_MOTION":"15.73037028","CENTER_NAME":"EARTH","REF_FRAME":"TEME","INCLINATION":"70.0002","RA_OF_ASC_NODE":"135.6941","CLASSIFICATION_TYPE":"U","EPOCH":"2023-04-02T22:00:00.999936","APOAPSIS":"352.809","PERIAPSIS":"347.640","COUNTRY_CODE":"US","GP_ID":"229356008","FILE":"3878419","ARG_OF_PERICENTER":"286.3417","ECCENTRICITY":"0.00038410","TLE_LINE2":"2 55922  70.0002 135.6941 0003841 286.3417 109.1653 15.73037028  1305","TLE_LINE1":"1 55922U 23037J   23092.91667824 -.00894999  00000-0 -72504-2 0  9997","EPHEMERIS_TYPE":"0","REV_AT_EPOCH":"130","OBJECT_ID":"2023-037J","DECAY_DATE":null,"OBJECT_TYPE":"PAYLOAD","BSTAR":"-0.00725040000000","ELEMENT_SET_NO":"999","TIME_SYSTEM":"UTC","NORAD_CAT_ID":"55922","MEAN_ANOMALY":"109.1653","LAUNCH_DATE":"2023-03-17","PERIOD":"91.543","SEMIMAJOR_AXIS":"6728.360","RCS_SIZE":"LARGE","OBJECT_NAME":"STARLINK-5863"},{"OBJECT_ID":"2023-037K","REV_AT_EPOCH":"130","EPHEMERIS_TYPE":"0","TLE_LINE1":"1 55923U 23037K   23092.91667824 -.00894538  00000-0 -72495-2 0  9996","ECCENTRICITY":"0.00038530","TLE_LINE2":"2 55923  70.0003 135.6948 0003853 287.1157 107.8545 15.73026469  1309","ELEMENT_SET_NO":"999","BSTAR":"-0.00724950000000","DECAY_DATE":null,"OBJECT_TYPE":"PAYLOAD","LAUNCH_DATE":"2023-03-17","MEAN_ANOMALY":"107.8545","TIME_SYSTEM":"UTC","NORAD_CAT_ID":"55923","OBJECT_NAME":"STARLINK-5854","RCS_SIZE":"LARGE","PERIOD":"91.543","SEMIMAJOR_AXIS":"6728.390","MEAN_MOTION_DOT":"-0.00894538","MEAN_MOTION_DDOT":"0.0000000000000","MEAN_MOTION":"15.73026469","MEAN_ELEMENT_THEORY":"SGP4","SITE":"AFWTR","INCLINATION":"70.0003","REF_FRAME":"TEME","CENTER_NAME":"EARTH","PERIAPSIS":"347.663","EPOCH":"2023-04-02T22:00:00.999936","APOAPSIS":"352.847","RA_OF_ASC_NODE":"135.6948","CLASSIFICATION_TYPE":"U","ARG_OF_PERICENTER":"287.1157","FILE":"3878419","GP_ID":"229355830","COUNTRY_CODE":"US"},{"RCS_SIZE":"LARGE","OBJECT_NAME":"STARLINK-5849","PERIOD":"91.536","SEMIMAJOR_AXIS":"6728.046","LAUNCH_DATE":"2023-03-17","TIME_SYSTEM":"UTC","NORAD_CAT_ID":"55924","MEAN_ANOMALY":"115.2287","BSTAR":"-0.00721480000000","ELEMENT_SET_NO":"999","DECAY_DATE":null,"OBJECT_TYPE":"PAYLOAD","REV_AT_EPOCH":"130","EPHEMERIS_TYPE":"0","OBJECT_ID":"2023-037L","ECCENTRICITY":"0.00038290","TLE_LINE2":"2 55924  70.0003 135.6871 0003829 286.1868 115.2287 15.73147195  1302","TLE_LINE1":"1 55924U 23037L   23092.91667824 -.00894842  00000-0 -72148-2 0  9990","FILE":"3878419","ARG_OF_PERICENTER":"286.1868","COUNTRY_CODE":"US","GP_ID":"229355853","APOAPSIS":"352.487","EPOCH":"2023-04-02T22:00:00.999936","PERIAPSIS":"347.335","RA_OF_ASC_NODE":"135.6871","CLASSIFICATION_TYPE":"U","INCLINATION":"70.0003","CENTER_NAME":"EARTH","REF_FRAME":"TEME","MEAN_ELEMENT_THEORY":"SGP4","MEAN_MOTION_DOT":"-0.00894842","MEAN_MOTION_DDOT":"0.0000000000000","MEAN_MOTION":"15.73147195","SITE":"AFWTR"}];
